NORAD_CAT_ID,OBJECT_NAME,OBJECT_TYPE,EPOCH,MEAN_MOTION,ECCENTRICITY,INCLINATION,RA_OF_ASC_NODE,ARG_OF_PERICENTER,MEAN_ANOMALY,BSTAR,MEAN_MOTION_DOT,MEAN_MOTION_DDOT,TLE_LINE0,TLE_LINE1,TLE_LINE2,SEMIMAJOR_AXIS,PERIOD,APOGEE,PERIGEE,DECAYED
52262.0,STARLINK-3761,PAYLOAD,2023-05-16 01:40:35,15.08835807,0.0001449,53.2176,46.7259,78.4015,281.714,8.2092e-05,1.019e-05,0.0,0 STARLINK-3761,1 52262U 22041B   23136.06985397  .00001019  00000-0  82092-4 0  9994,2 52262  53.2176  46.7259 0001449  78.4015 281.7140 15.08835807 60294,6917.893,95.438,540.761,538.756,0.0
52262.0,STARLINK-3761,PAYLOAD,2023-05-16 20:45:12,15.0884325,0.0001304,53.2175,43.1595,105.5785,254.5352,8.2942e-06,-1.56e-06,0.0,0 STARLINK-3761,1 52262U 22041B   23136.86473001 -.00000156  00000-0  82942-5 0  9993,2 52262  53.2175  43.1595 0001304 105.5785 254.5352 15.08843250 59194,6917.87,95.437,540.638,538.833,0.0
52262.0,STARLINK-3761,PAYLOAD,2023-05-16 22:20:35,15.08844982,0.0001226,53.2172,42.8627,89.1264,270.9869,4.6201e-05,4.48e-06,0.0,0 STARLINK-3761,1 52262U 22041B   23136.93096943  .00000448  00000-0  46201-4 0  9997,2 52262  53.2172  42.8627 0001226  89.1264 270.9869 15.08844982 60421,6917.865,95.437,540.578,538.882,0.0
52262.0,STARLINK-3761,PAYLOAD,2023-05-17 03:06:44,15.08850005,0.0001289,53.2178,41.9686,85.3024,274.8115,0.00013366,1.841e-05,0.0,0 STARLINK-3761,1 52262U 22041B   23137.12968681  .00001841  00000-0  13366-3 0  9999,2 52262  53.2178  41.9686 0001289  85.3024 274.8115 15.08850005 59230,6917.85,95.437,540.607,538.823,0.0
52262.0,STARLINK-3761,PAYLOAD,2023-05-17 23:46:46,15.08828715,0.0001318,53.2183,38.0997,96.1635,263.9508,0.00023804,3.501e-05,0.0,0 STARLINK-3761,1 52262U 22041B   23137.99081987  .00003501  00000-0  23804-3 0  9992,2 52262  53.2183  38.0997 0001318  96.1635 263.9508 15.08828715 60587,6917.915,95.438,540.692,538.868,0.0
52262.0,STARLINK-3761,PAYLOAD,2023-05-18 23:37:32,15.08847296,0.0001187,53.2191,33.6427,90.5604,269.5524,8.0828e-05,9.99e-06,0.0,0 STARLINK-3761,1 52262U 22041B   23138.98440858  .00000999  00000-0  80828-4 0  9996,2 52262  53.2191  33.6427 0001187  90.5604 269.5524 15.08847296 60735,6917.858,95.437,540.544,538.902,0.0
52262.0,STARLINK-3761,PAYLOAD,2023-05-19 21:52:57,15.08841385,0.000116,53.2185,29.4768,88.3368,271.7757,7.194e-05,8.57e-06,0.0,0 STARLINK-3761,1 52262U 22041B   23139.91177162  .00000857  00000-0  71940-4 0  9993,2 52262  53.2185  29.4768 0001160  88.3368 271.7757 15.08841385 59657,6917.876,95.437,540.544,538.939,0.0
52262.0,STARLINK-3761,PAYLOAD,2023-05-19 23:28:19,15.0884459,0.0001088,53.2186,29.1829,87.2026,272.9091,0.00010025,1.308e-05,0.0,0 STARLINK-3761,1 52262U 22041B   23139.97800925  .00001308  00000-0  10025-3 0  9997,2 52262  53.2186  29.1829 0001088  87.2026 272.9091 15.08844590 60883,6917.866,95.437,540.484,538.979,0.0
52262.0,STARLINK-3761,PAYLOAD,2023-05-20 16:57:34,15.08871333,0.0001056,53.2178,25.9135,97.9042,262.207,-0.00023663,-4.055e-05,0.0,0 STARLINK-3761,1 52262U 22041B   23140.70664482 -.00004055  00000-0 -23663-3 0  9992,2 52262  53.2178  25.9135 0001056  97.9042 262.2070 15.08871333 60995,6917.785,95.436,540.38,538.919,0.0
52262.0,STARLINK-3761,PAYLOAD,2023-05-20 20:08:19,15.08861009,9.55e-05,53.2184,25.3234,98.3871,261.7229,-0.00010274,-1.923e-05,0.0,0 STARLINK-3761,1 52262U 22041B   23140.83912028 -.00001923  00000-0 -10274-3 0  9993,2 52262  53.2184  25.3234 0000955  98.3871 261.7229 15.08861009 59793,6917.816,95.436,540.342,539.021,0.0
52262.0,STARLINK-3761,PAYLOAD,2023-05-20 23:19:06,15.08855289,0.0001243,53.217,24.7252,91.5651,268.5484,0.00022754,3.337e-05,0.0,0 STARLINK-3761,1 52262U 22041B   23140.97160117  .00003337  00000-0  22754-3 0  9997,2 52262  53.2170  24.7252 0001243  91.5651 268.5484 15.08855289 59817,6917.834,95.437,540.559,538.839,0.0
52262.0,STARLINK-3761,PAYLOAD,2023-05-21 16:48:22,15.08830069,0.0001219,53.2181,21.4554,102.7041,257.4088,-0.00011429,-2.106e-05,0.0,0 STARLINK-3761,1 52262U 22041B   23141.70025648 -.00002106  00000-0 -11429-3 0  9990,2 52262  53.2181  21.4554 0001219 102.7041 257.4088 15.08830069 61144,6917.911,95.438,540.619,538.932,0.0
52262.0,STARLINK-3761,PAYLOAD,2023-05-21 18:23:45,15.08825024,7.93e-05,53.2174,21.1568,75.3682,284.7398,-0.00016452,-2.904e-05,0.0,0 STARLINK-3761,1 52262U 22041B   23141.76649964 -.00002904  00000-0 -16452-3 0  9996,2 52262  53.2174  21.1568 0000793  75.3682 284.7398 15.08825024 59936,6917.926,95.439,540.34,539.243,0.0
52262.0,STARLINK-3761,PAYLOAD,2023-05-21 23:09:55,15.08815843,9.43e-05,53.2168,20.2633,78.9744,281.1354,-0.00035835,-5.982e-05,0.0,0 STARLINK-3761,1 52262U 22041B   23141.96522247 -.00005982  00000-0 -35835-3 0  9997,2 52262  53.2168  20.2633 0000943  78.9744 281.1354 15.08815843 61188,6917.954,95.439,540.472,539.167,0.0
52262.0,STARLINK-3761,PAYLOAD,2023-05-22 08:42:14,15.08823244,9.93e-05,53.2168,18.4782,76.5061,283.6042,-6.5068e-05,-1.323e-05,0.0,0 STARLINK-3761,1 52262U 22041B   23142.36266611 -.00001323  00000-0 -65068-4 0  9999,2 52262  53.2168  18.4782 0000993  76.5061 283.6042 15.08823244 61245,6917.932,95.439,540.484,539.11,0.0
52262.0,STARLINK-3761,PAYLOAD,2023-05-22 18:14:33,15.08830919,9.86e-05,53.2167,16.694,79.7474,280.363,0.0003065,4.592e-05,0.0,0 STARLINK-3761,1 52262U 22041B   23142.76010917  .00004592  00000-0  30650-3 0  9996,2 52262  53.2167  16.6940 0000986  79.7474 280.3630 15.08830919 60080,6917.908,95.438,540.455,539.091,0.0
52262.0,STARLINK-3761,PAYLOAD,2023-05-23 00:36:06,15.0883707,9.61e-05,53.2162,15.5051,76.1165,283.9934,0.00090251,0.00014104,0.0,0 STARLINK-3761,1 52262U 22041B   23143.02507236  .00014104  00000-0  90251-3 0  9994,2 52262  53.2162  15.5051 0000961  76.1165 283.9934 15.08837070 61348,6917.889,95.438,540.419,539.09,0.0
52262.0,STARLINK-3761,PAYLOAD,2023-05-23 21:16:06,15.08862397,9.2e-05,53.2159,11.6394,75.9115,284.1979,0.00073402,0.0001142,0.0,0 STARLINK-3761,1 52262U 22041B   23143.88618386  .00011420  00000-0  73402-3 0  9994,2 52262  53.2159  11.6394 0000920  75.9115 284.1979 15.08862397 60259,6917.812,95.436,540.313,539.04,0.0
52262.0,STARLINK-3761,PAYLOAD,2023-05-24 14:45:20,15.08856131,9.81e-05,53.2156,8.3684,75.0847,285.0254,0.00041552,6.334e-05,0.0,0 STARLINK-3761,1 52262U 22041B   23144.61482071  .00006334  00000-0  41552-3 0  9995,2 52262  53.2156   8.3684 0000981  75.0847 285.0254 15.08856131 61583,6917.831,95.437,540.375,539.017,0.0
52262.0,STARLINK-3761,PAYLOAD,2023-05-25 17:46:53,15.08849111,0.0001039,53.2164,3.3142,98.3042,261.8067,0.0005644,8.708e-05,0.0,0 STARLINK-3761,1 52262U 22041B   23145.74089904  .00008708  00000-0  56440-3 0  9997,2 52262  53.2164   3.3142 0001039  98.3042 261.8067 15.08849111 61759,6917.853,95.437,540.436,538.999,0.0
52262.0,STARLINK-3761,PAYLOAD,2023-05-25 20:57:39,15.08849859,9.9e-05,53.2166,2.7179,100.318,259.7924,0.00032769,4.933e-05,0.0,0 STARLINK-3761,1 52262U 22041B   23145.87337730  .00004933  00000-0  32769-3 0  9998,2 52262  53.2166   2.7179 0000990 100.3180 259.7924 15.08849859 60550,6917.85,95.437,540.4,539.03,0.0
52262.0,STARLINK-3761,PAYLOAD,2023-05-26 19:13:04,15.08830068,0.0001127,53.2165,358.5537,104.3315,255.7802,0.00021368,3.114e-05,0.0,0 STARLINK-3761,1 52262U 22041B   23146.80074690  .00003114  00000-0  21368-3 0  9998,2 52262  53.2165 358.5537 0001127 104.3315 255.7802 15.08830068 61910,6917.911,95.438,540.555,538.996,0.0
52262.0,STARLINK-3761,PAYLOAD,2023-05-26 20:48:27,15.08836051,0.000102,53.2164,358.2571,101.3939,258.7168,5.321e-06,-2.03e-06,0.0,0 STARLINK-3761,1 52262U 22041B   23146.86698334 -.00000203  00000-0  53210-5 0  9991,2 52262  53.2164 358.2571 0001020 101.3939 258.7168 15.08836051 60707,6917.892,95.438,540.463,539.052,0.0
52262.0,STARLINK-3761,PAYLOAD,2023-05-27 20:39:14,15.08843016,9.35e-05,53.2175,353.797,74.5344,285.5752,0.00011813,1.593e-05,0.0,0 STARLINK-3761,1 52262U 22041B   23147.86057967  .00001593  00000-0  11813-3 0  9996,2 52262  53.2175 353.7970 0000935  74.5344 285.5752 15.08843016 62075,6917.871,95.437,540.383,539.089,0.0
52262.0,STARLINK-3761,PAYLOAD,2023-05-28 06:11:32,15.08845147,9.06e-05,53.2169,352.0135,78.6628,281.4466,3.309e-06,-2.35e-06,0.0,0 STARLINK-3761,1 52262U 22041B   23148.25802058 -.00000235  00000-0  33090-5 0  9995,2 52262  53.2169 352.0135 0000906  78.6628 281.4466 15.08845147 60916,6917.865,95.437,540.356,539.103,0.0
52262.0,STARLINK-3761,PAYLOAD,2023-05-28 20:30:01,15.08839564,9.06e-05,53.2165,349.3379,80.0973,280.0121,0.00011233,1.5e-05,0.0,0 STARLINK-3761,1 52262U 22041B   23148.85418420  .00001500  00000-0  11233-3 0  9995,2 52262  53.2165 349.3379 0000906  80.0973 280.0121 15.08839564 62226,6917.882,95.438,540.373,539.12,0.0
52262.0,STARLINK-3761,PAYLOAD,2023-05-29 06:02:20,15.08838609,8.73e-05,53.2166,347.5528,79.2981,280.811,9.7427e-05,1.263e-05,0.0,0 STARLINK-3761,1 52262U 22041B   23149.25162556  .00001263  00000-0  97427-4 0  9992,2 52262  53.2166 347.5528 0000873  79.2981 280.8110 15.08838609 61061,6917.885,95.438,540.354,539.146,0.0
52262.0,STARLINK-3761,PAYLOAD,2023-05-29 20:20:48,15.08841978,9.19e-05,53.2166,344.8771,92.3506,267.7591,2.1713e-05,5.8e-07,0.0,0 STARLINK-3761,1 52262U 22041B   23149.84778558  .00000058  00000-0  21713-4 0  9998,2 52262  53.2166 344.8771 0000919  92.3506 267.7591 15.08841978 61151,6917.874,95.437,540.375,539.104,0.0
52262.0,STARLINK-3761,PAYLOAD,2023-05-29 23:31:34,15.08843431,9.37e-05,53.2164,344.2822,90.017,270.093,6.2362e-05,7.05e-06,0.0,0 STARLINK-3761,1 52262U 22041B   23149.98026365  .00000705  00000-0  62362-4 0  9999,2 52262  53.2164 344.2822 0000937  90.0170 270.0930 15.08843431 62399,6917.87,95.437,540.383,539.087,0.0
52262.0,STARLINK-3761,PAYLOAD,2023-05-30 05:53:07,15.08838223,8.88e-05,53.2166,343.0921,88.9141,271.1953,3.6495e-05,2.93e-06,0.0,0 STARLINK-3761,1 52262U 22041B   23150.24522748  .00000293  00000-0  36495-4 0  9996,2 52262  53.2166 343.0921 0000888  88.9141 271.1953 15.08838223 61217,6917.886,95.438,540.365,539.137,0.0
